ION SCV-014             
1 62630U 25009X   26068.71776957  .00001812  00000+0  13229-3 0  9995
2 62630  97.4923 144.8636 0006450 112.6479 247.5430 15.04884649 63025
STARLINK-34748          
1 64848U 25152G   26068.57907688 -.00000072  00000+0 -76120-6 0  9999
2 64848  97.5998 285.4411 0003972 100.2475 259.9200 15.05633159 35401
